1 28874U 05038A   18047.27126198 -.00000046  00000-0  00000+0 0  9991
2 28874  56.2716  33.5645 0125821 257.5061 272.1050  2.00553756 90794
1 28874U 05038A   18047.85671167 -.00000044  00000-0  00000+0 0  9994
2 28874  56.2719  33.5415 0125788 257.5315 334.7802  2.00553700 90807
1 28874U 05038A   18047.85671167 -.00000044  00000-0  00000-0 0  9995
2 28874  56.2719  33.5415 0125788 257.5315 334.7802  2.00553700 90818
1 28874U 05038A   18050.52465366 -.00000036  00000-0  00000+0 0  9995
2 28874  56.2723  33.4370 0125698 257.5868 101.0262  2.00554378 90867
1 28874U 05038A   18050.83491722 -.00000035  00000-0  00000-0 0  9994
2 28874  56.2731  33.4244 0125765 257.5917 325.0146  2.00553437 90860
1 28874U 05038A   18051.37253043 -.00000034  00000-0  00000+0 0  9994
2 28874  56.2733  33.4033 0125755 257.6095 353.1586  2.00553383 90876
1 28874U 05038A   18051.84406993 -.00000033  00000-0  00000-0 0  9990
2 28874  56.2735  33.3848 0125768 257.6124 333.6116  2.00553340 90895
1 28874U 05038A   18052.32314904 -.00000032  00000-0  00000+0 0  9992
2 28874  56.2737  33.3659 0125768 257.6212 319.5024  2.00553300 90892
1 28874U 05038A   18052.74063878 -.00000032  00000-0  00000-0 0  9990
2 28874  56.2739  33.3495 0125784 257.6220 260.9331  2.00553265 90912
1 28874U 05038A   18053.33321954 -.00000032  00000-0  00000+0 0  9997
2 28874  56.2741  33.3262 0125786 257.6304 328.7734  2.00553216 90918
1 28874U 05038A   18053.80740479 -.00000032  00000-0  00000+0 0  9996
2 28874  56.2743  33.3076 0125800 257.6387 311.1312  2.00553176 90925
1 28874U 05038A   18053.80740479 -.00000032  00000-0  00000-0 0  9997
2 28874  56.2743  33.3076 0125800 257.6387 311.1312  2.00553176 90936
1 28874U 05038A   18054.81847490 -.00000034  00000-0  00000-0 0  9992
2 28874  56.2747  33.2678 0125793 257.6578 321.1137  2.00553102 90957
1 28874U 05038A   18055.24544378 -.00000035  00000-0  00000+0 0  9999
2 28874  56.2749  33.2510 0125801 257.6622 269.3846  2.00553073 90951
1 28874U 05038A   18055.24544378 -.00000035  00000-0  00000-0 0  9990
2 28874  56.2749  33.2510 0125801 257.6622 269.3846  2.00553073 90962
1 28874U 05038A   18055.77746572 -.00000038  00000-0  00000+0 0  9990
2 28874  56.2752  33.2301 0125800 257.6670 293.5041  2.00553037 90962
1 28874U 05038A   18055.77746572 -.00000038  00000-0  00000-0 0  9991
2 28874  56.2752  33.2301 0125800 257.6670 293.5041  2.00553037 90973
1 28874U 05038A   18056.77883275 -.00000044  00000-0  00000-0 0  9991
2 28874  56.2755  33.1907 0125823 257.6811 296.4856  2.00552972 90994
1 28874U 05038A   18057.32039047 -.00000048  00000-0  00000+0 0  9996
2 28874  56.2758  33.1694 0125811 257.6897 327.4862  2.00552941 90999
1 28874U 05038A   18058.80662365 -.00000060  00000-0  00000-0 0  9990
2 28874  56.2764  33.1109 0125791 257.7120 320.5362  2.00552865 91034
1 28874U 05038A   18059.10520637 -.00000062  00000-0  00000+0 0  9990
2 28874  56.2765  33.0992 0125788 257.7133 176.1139  2.00552849 91033
1 28874U 05038A   18059.81887459 -.00000067  00000-0  00000-0 0  9992
2 28874  56.2768  33.0711 0125753 257.7337 331.3672  2.00552816 91056
1 28874U 05038A   18060.23660622 -.00000069  00000-0  00000+0 0  9992
2 28874  56.2770  33.0547 0125759 257.7363 272.9701  2.00552799 91054
1 28874U 05038A   18061.30423639 -.00000074  00000-0  00000+0 0  9992
2 28874  56.2774  33.0127 0125748 257.7533 323.7900  2.00552761 91076
1 28874U 05038A   18061.72893794 -.00000076  00000-0  00000-0 0  9994
2 28874  56.2776  32.9960 0125746 257.7581 270.4228  2.00552744 91096
1 28874U 05038A   18062.31662354 -.00000077  00000-0  00000+0 0  9996
2 28874  56.2778  32.9729 0125721 257.7723 334.7218  2.00552725 91094
1 28874U 05038A   18062.79032641 -.00000077  00000-0  00000+0 0  9998
2 28874  56.2780  32.9542 0125714 257.7807 316.7303  2.00552710 91106
1 28874U 05038A   18062.79032641 -.00000077  00000-0  00000-0 0  9999
2 28874  56.2780  32.9542 0125714 257.7807 316.7303  2.00552710 91117
1 28874U 05038A   18063.80305782 -.00000076  00000-0  00000-0 0  9990
2 28874  56.2784  32.9144 0125687 257.7970 327.9130  2.00552678 91136
1 28874U 05038A   18064.34153463 -.00000075  00000-0  00000+0 0  9995
2 28874  56.2787  32.8933 0125666 257.8047 356.6890  2.00552657 91136
1 28874U 05038A   18065.28937296 -.00000072  00000-0  00000+0 0  9990
2 28874  56.2791  32.8560 0125656 257.8189 321.0204  2.00552629 91159
1 28874U 05038A   18066.77418807 -.00000068  00000-0  00000+0 0  9992
2 28874  56.2796  32.7977 0125688 257.8374 313.0484  2.00552584 91180
1 28874U 05038A   18066.77418807 -.00000068  00000-0  00000-0 0  9993
2 28874  56.2796  32.7977 0125688 257.8374 313.0484  2.00552584 91191
1 28874U 05038A   18067.67743861 -.00000066  00000-0  00000-0 0  9992
2 28874  56.2800  32.7622 0125688 257.8420 245.1962  2.00552550 91218
1 28874U 05038A   18068.32684722 -.00000065  00000-0  00000+0 0  9993
2 28874  56.2802  32.7367 0125673 257.8502 354.0648  2.00552519 91217
1 28874U 05038A   18068.80128575 -.00000065  00000-0  00000-0 0  9996
2 28874  56.2805  32.7181 0125656 257.8552 336.6072  2.00552496 91233
1 28874U 05038A   18069.27322741 -.00000064  00000-0  00000+0 0  9997
2 28874  56.2806  32.6995 0125647 257.8631 317.3439  2.00552470 91239
1 28874U 05038A   18069.69986203 -.00000064  00000-0  00000+0 0  9992
2 28874  56.2808  32.6828 0125651 257.8668 265.3730  2.00552449 91244
1 28874U 05038A   18069.69986203 -.00000064  00000-0  00000-0 0  9993
2 28874  56.2808  32.6828 0125651 257.8668 265.3730  2.00552449 91255
1 28874U 05038A   18070.82598191 -.00000063  00000-0  00000-0 0  9994
2 28874  56.2812  32.6385 0125646 257.8841 358.4207  2.00552385 91279
1 28874U 05038A   18071.30061828 -.00000063  00000-0  00000+0 0  9999
2 28874  56.2813  32.6199 0125629 257.8928 341.1020  2.00552355 91279
1 28874U 05038A   18071.72021361 -.00000063  00000-0  00000-0 0  9994
2 28874  56.2815  32.6034 0125635 257.8968 284.0482  2.00552329 91290
1 28874U 05038A   18072.20229941 -.00000062  00000-0  00000+0 0  9990
2 28874  56.2817  32.5845 0125635 257.9013 272.1122  2.00552295 91294
1 28874U 05038A   18072.78610275 -.00000062  00000-0  00000-0 0  9998
2 28874  56.2819  32.5616 0125624 257.9143 333.6083  2.00552252 91319
1 28874U 05038A   18073.21226965 -.00000061  00000-0  00000+0 0  9994
2 28874  56.2821  32.5449 0125621 257.9206 281.2966  2.00552219 91314
1 28874U 05038A   18074.22254407 -.00000059  00000-0  00000+0 0  9995
2 28874  56.2823  32.5052 0125642 257.9365 290.7041  2.00552141 91330
1 28874U 05038A   18074.71160455 -.00000058  00000-0  00000-0 0  9998
2 28874  56.2825  32.4860 0125631 257.9424 283.8021  2.00552100 91350
1 28874U 05038A   18075.17162049 -.00000057  00000-0  00000+0 0  9998
2 28874  56.2827  32.4679 0125630 257.9445 255.9335  2.00552062 91357
1 28874U 05038A   18075.82014900 -.00000055  00000-0  00000-0 0  9991
2 28874  56.2829  32.4425 0125591 257.9568   4.1617  2.00552004 91375
1 28874U 05038A   18076.29597461 -.00000054  00000-0  00000+0 0  9999
2 28874  56.2830  32.4238 0125568 257.9623 347.7040  2.00551958 91378
1 28874U 05038A   18076.77009274 -.00000052  00000-0  00000-0 0  9991
2 28874  56.2832  32.4052 0125556 257.9675 330.0140  2.00551917 91391
1 28874U 05038A   18077.19798587 -.00000051  00000-0  00000+0 0  9998
2 28874  56.2833  32.3884 0125564 257.9703 278.9517  2.00551881 91393
1 28874U 05038A   18077.77911479 -.00000049  00000-0  00000-0 0  9997
2 28874  56.2835  32.3655 0125553 257.9798 338.5196  2.00551831 91417
1 28874U 05038A   18078.32169497 -.00000048  00000-0  00000+0 0  9992
2 28874  56.2837  32.3442 0125559 257.9857  10.2587  2.00551786 91412
1 28874U 05038A   18079.74048777 -.00000045  00000-0  00000+0 0  9993
2 28874  56.2842  32.2885 0125555 258.0032 314.6148  2.00551668 91447
1 28874U 05038A   18079.74048777 -.00000045  00000-0  00000-0 0  9994
2 28874  56.2842  32.2885 0125555 258.0032 314.6148  2.00551668 91458
1 28874U 05038A   18080.81513495 -.00000045  00000-0  00000+0 0  9997
2 28874  56.2846  32.2462 0125542 258.0185  10.4983  2.00551580 91460
1 28874U 05038A   18080.81513495 -.00000045  00000-0  00000-0 0  9998
2 28874  56.2846  32.2462 0125542 258.0185  10.4983  2.00551580 91471
1 28874U 05038A   18081.76686147 -.00000046  00000-0  00000-0 0  9999
2 28874  56.2849  32.2088 0125529 258.0334 337.6328  2.00551504 91494
1 28874U 05038A   18082.30292853 -.00000048  00000-0  00000+0 0  9998
2 28874  56.2851  32.1878 0125502 258.0400   4.6681  2.00551465 91497
1 28874U 05038A   18083.25345663 -.00000052  00000-0  00000+0 0  9996
2 28874  56.2854  32.1504 0125507 258.0522 330.9398  2.00551401 91519
1 28874U 05038A   18083.68379375 -.00000055  00000-0  00000-0 0  9994
2 28874  56.2855  32.1335 0125512 258.0516 281.6448  2.00551373 91539
1 28874U 05038A   18084.26460288 -.00000059  00000-0  00000+0 0  9996
2 28874  56.2857  32.1107 0125494 258.0581 340.9839  2.00551336 91531
1 28874U 05038A   18084.73531528 -.00000062  00000-0  00000-0 0  9999
2 28874  56.2859  32.0921 0125497 258.0622 320.8353  2.00551310 91557
1 28874U 05038A   18085.18518199 -.00000066  00000-0  00000-0 0  9992
2 28874  56.2860  32.0745 0125489 258.0655 285.6367  2.00551285 91554
1 28874U 05038A   18086.16581969 -.00000074  00000-0  00000+0 0  9994
2 28874  56.2863  32.0359 0125484 258.0737 273.6511  2.00551237 91571
1 28874U 05038A   18086.66130578 -.00000078  00000-0  00000-0 0  9990
2 28874  56.2865  32.0164 0125482 258.0770 271.3897  2.00551215 91592
1 28874U 05038A   18087.23531743 -.00000081  00000-0  00000+0 0  9996
2 28874  56.2867  31.9939 0125478 258.0834 325.8209  2.00551193 91595
1 28874U 05038A   18087.68382459 -.00000084  00000-0  00000-0 0  9997
2 28874  56.2868  31.9762 0125474 258.0877 289.6396  2.00551176 91611
1 28874U 05038A   18088.25145149 -.00000087  00000-0  00000-0 0  9997
2 28874  56.2870  31.9539 0125449 258.0932 339.4616  2.00551154 91626
